X,Y,OBJECTID,GPIN,NAME,ADDRESS,WEB_LINK,SP_Y,SP_X,LATI,LONG_,SUB_CATEGORY,NOTE_
-76.022899114009974,36.841709762208708,325,24077574330000,Oceana Neighborhood Park,229 FIRST COLONIAL RD,,3475434.48291063,12207715.3793195,36.84170976,-76.02289911,City Park,
-76.003663447508615,36.748592296080801,330,24144126490000,Red Mill Farms Park,1900 SANDBRIDGE RD,,3441691.95000213,12214238.8075456,36.7485923,-76.00366345,City Park,
-76.059349315776871,36.883671443697558,338,14996081840000,Great Neck Park,2521 SHOREHAVEN DR,,3490429.19406289,12196657.5349654,36.88367144,-76.05934932,City Park,
-76.119969809563813,36.902567646181915,342,14798537230000,Bayville Farms Park,4132 FIRST COURT RD,,3496854.19991364,12178760.1429387,36.90256765,-76.11996981,City Park,
-76.199603988060574,36.777026616354725,347,14554434010000,City View Park,1989 JAKE SEARS RD,,3450583.03261364,12156596.0862171,36.77702662,-76.19960399,City Park,
-76.09332796653284,36.776043041046449,350,14857069420000,Princess Anne Commons Gateway Park,3740 DAM NECK RD,,3451000.96255204,12187721.9127448,36.77604304,-76.09332797,City Park,
-75.975654895028001,36.852524893245075,352,24271937960000,24th Street Park,2405 ATLANTIC AVE,,3479736.8824423,12221430.4624536,36.85252489,-75.97565489,City Park,
-75.985531460148493,36.85636547319654,355,24188171330000,Beach Garden Park,2854 KILBOURNE CT,,3481057.57041772,12218504.4558384,36.85636547,-75.98553146,City Park,
-76.122410352527709,36.831326844086554,356,14767978800000,Mount Trashmore Park,310 EDWIN DR,,3470906.74951205,12178699.9412875,36.83132684,-76.12241035,City Park,
-75.923314970918767,36.692618614801539,363,24328118560000,Little Island Park,3820 SANDPIPER RD,,3421952.81297129,12238327.9407976,36.69261861,-75.92331497,City Park,
-76.192385170454827,36.811587874186721,365,14568332440000,Woodstock Park,5709 PROVIDENCE RD,,3463214.0926533,12158402.164954,36.81158787,-76.19238517,City Park,
-75.98806922508065,36.790683823209456,366,24158711600000,Red Wing Park,1398 SAKURA LN,,3457132.58972447,12218398.4596593,36.79068382,-75.98806923,City Park,
-76.033519867766358,36.866434430594389,374,24084428800000,Lynnhaven Park,1246 BAYNE DR,,3484351.91750355,12204373.297421,36.86643443,-76.03351987,City Park,
-76.027101828167815,36.912714669626894,394,24098875140000,First Landing State Park,2500 SHORE DR,,3501245.18981929,12205808.8391693,36.91271467,-76.02710183,State Park,
-75.99814996199386,36.888694160541228,395,24098875140000,64th Street First Landing State Park,225 64th St,,3492725.74688447,12214501.9848407,36.88869416,-75.99814996,State Park,
-75.886443821304695,36.587138876908746,396,23581351080000,False Cape State Park,4001 SANDPIPER RD,,3383860.95542814,12250197.8379896,36.58713888,-75.88644382,State Park,
-75.941355151355168,36.553090261481458,397,23373154310000,MacKay Island Wildlife Refuge,,,3371027.20878597,12234417.0634488,36.55309026,-75.94135515,Wildlife Refuge,
-75.918726210259138,36.681632753238667,398,24309634300000,Back Bay National Wildlife Refuge,4005 SANDPIPER RD,,3417991.26741672,12239782.2521935,36.68163275,-75.91872621,Wildlife Refuge,
-76.092690705263564,36.814275830516777,415,14867438990000,Plaza Northgate Park,3401 BANCROFT DR STE A,,3464921.16732313,12187553.5731865,36.81427583,-76.09269071,City Park,
-76.021405782529442,36.597319253818355,433,,Creeds Wayside Park,,,3386497.6122283,12210488.1309918,36.59731925,-76.02140578,City Park,
-76.046535783395115,36.617462854459518,434,23092363980000,Pungo Ferry Landing Park,2272 OLD PUNGO FERRY RD,,3393636.46048339,12202922.5135771,36.61746285,-76.04653578,City Park,
-75.969247856198436,36.830562280799739,436,,Grommet Island Park,100 2nd St,,3471793.68999538,12223518.7699567,36.83056228,-75.96924786,City Park,
-75.978514290069526,36.8644250354821,437,,Hillier Ignite Fitness Park,100 36th St,,3484045.6415413,12220478.4171136,36.86442504,-75.97851429,City Park,
-76.160268047258143,36.824864087454593,438,14667863410000,Kempes Landing Park,524 KEMPSVILLE RD,,3468277.67996705,12167681.7877989,36.82486409,-76.16026805,City Park,
-76.164174130522653,36.89182308897329,439,14695281070000,Lake Lawson / Lake Smith Natural Area,5381 Shell Rd,,3492620.66212088,12165935.6941782,36.89182309,-76.16417413,City Park,
-75.990568684052448,36.834513797606995,441,24177301860000,Marshview Park - In Development,Marshview Dr,,3473065.30949938,12217242.6624302,36.8345138,-75.99056868,City Park,
-76.036567258637277,36.583774160450666,442,23086120390000,Munden Point Park,,,3381451.20204555,12206167.2925206,36.58377416,-76.03656726,City Park,
-76.099136773197273,36.904078561714144,443,14894755330000,Pleasure House Point Natural Area,3957 Marlin Bay Dr,,3497558.35500138,12184835.7436484,36.90407856,-76.09913677,City Park,
-76.197589177371057,36.81155555906831,444,14566382790000,Providence Park,952 REON DR,,3463165.13638638,12156879.4380126,36.81155556,-76.19758918,City Park,
-76.051958433963279,36.747437228925861,446,14949099390000,West Neck Creek Natural Area,,,3440901.03721388,12200104.5175727,36.74743723,-76.05195843,City Park,
-76.157512620532643,36.861660888408188,447,14688124660000,Williams Farm Park,5269 LEARNING CIR,,3481690.70661864,12168155.6503682,36.86166089,-76.15751262,City Park,
-76.014145293874307,36.771636778597347,448,24140999780000,Strawbridge East Park,1921 Lewisham Way,,3449998.15648679,12210947.8735106,36.77163678,-76.01414529,City Park,
-76.194166654529056,36.771387896448381,449,14548825870000,Alexandria Park,5569 GLEN VIEW DR,,3448569.52089264,12158238.2509117,36.7713879,-76.19416665,City Park,
-75.997754318789916,36.874968341739503,450,24184787450000,Bay Colony Park,824 BAY COLONY DR STE P2,,3487733.20470421,12214750.0945807,36.87496834,-75.99775432,City Park,
-76.12754592039569,36.784259283652624,451,14757368000000,Bellamy Plantation Park,1680 GREY FRIARS CHASE,,3453737.77466372,12177627.9890351,36.78425928,-76.12754592,City Park,
-76.135448878752143,36.783858123431756,452,14755335530000,Bellamy Plantation East Park,1833 BURWILLOW DR,,3453533.70354955,12175317.9585501,36.78385812,-76.13544888,City Park,
-76.136449739420883,36.799581943796625,453,14754982940000,Bellamy Woods Park,4629 BERRYWOOD RD,,3459249.37190822,12174881.6274018,36.79958194,-76.13644974,City Park,
-76.128272651172338,36.766236731089094,454,14747761070000,Bellwood Estates Park,2096 BRUSH HILL LN,,3447172.7625313,12177580.0649183,36.76623673,-76.12827265,City Park,
-76.100115494885841,36.851035452512328,455,14874893510000,Birchwood - Malibu Park,3632 ROYAL PALM ARCH STE P2,,3478245.12394288,12185040.5585275,36.85103545,-76.1001155,City Park,
-76.104731935334286,36.842831039966889,456,14873572820000,Birchwood South Park,3788 LAMPL AVE,,3475224.68247722,12183766.0203941,36.84283104,-76.10473194,City Park,
-76.109971350245786,36.620057253226761,457,13894431130000,Blackwater Park,3390 HEAD RIVER RD,,3394103.18067855,12184286.5318203,36.62005725,-76.10997135,City Park,
-75.987406246841417,36.776169445826362,458,24158178470000,Box Elder Arch Park,1745 BOX ELDER ARCH,,3451855.1645838,12218733.1627301,36.77616945,-75.98740625,City Park,
-76.091388095100982,36.823582315758536,459,14867736710000,Bow Creek Neighborhood Park,3427 CLUB HOUSE RD,,3468318.13821946,12187848.3327676,36.82358232,-76.09138809,City Park,
-76.047936127565634,36.759624244849284,460,24041532270000,Princess Anne Quarter,2360 FENWICK WAY,,3445367.2307093,12201167.4045546,36.75962424,-76.04793613,City Park,
-76.190749563799571,36.774430332876413,461,14549926280000,Centerville Park,1960 JOHN BROWN LN,,3449701.35655546,12159211.7384661,36.77443033,-76.19074956,City Park,
-76.172299525218165,36.782458483117374,462,14654248920000,Brigadoon Park,5277 LYNNHAVEN PKWY,,3452756.09618089,12164541.9213752,36.78245848,-76.17229952,City Park,
-76.16343448466715,36.784929131198304,463,14657317340000,Brigadoon Pines Park,,,3453719.47614388,12167115.0956908,36.78492913,-76.16343448,City Park,
-76.178957252402483,36.779121664447487,464,14652165810000,Brigadoon Woods Park,,,3451493.57672429,12162622.5876155,36.77912166,-76.17895725,City Park,
-76.026280941372988,36.871799779084618,465,24086652700000,Brighton On The Bay/Linkhorn C,1868 EDEN WAY,,3486360.09196489,12206439.0488669,36.87179978,-76.02628094,City Park,
-76.092651821686488,36.862278125235456,466,14887214350000,Brill Field Park,3500 KINGS GRANT RD,,3482392.67601521,12187119.3286482,36.86227813,-76.09265182,City Park,
-76.057331058251592,36.768393853692665,467,14948835520000,Buyrn Farms Park,2609 BUYRN CIR,,3448487.70019013,12198333.4833851,36.76839385,-76.05733106,City Park,
-76.062245053061517,36.91225330945057,468,15905057290000,Cape Story Park,,,3500810.07520397,12195542.2110806,36.91225331,-76.06224505,City Park,
-76.071945637319544,36.796938650362193,469,14953877770000,Cardinal Estates Park,1324 OLD CLUBHOUSE RD,,3458766.5641468,12193786.7979247,36.79693865,-76.07194564,City Park,
-76.170262629447407,36.827039696102048,470,14664970600000,Carolanne Park,5281 CHALLEDON DR,,3468997.20247813,12164737.7434901,36.8270397,-76.17026263,City Park,
-76.186181533561793,36.806954735752747,471,14660116800000,Cedar Hill Park,,,3461572.19337805,12160259.0703609,36.80695474,-76.18618153,City Park,
-76.122266323841572,36.771426136245431,472,14749930190000,Champion Oaks Park,1909 STILLMEADOW CT,,3449105.79967572,12179291.3229787,36.77142614,-76.12226632,City Park,
-76.182720776624663,36.770916645618847,473,14641864360000,Charlestown Athletic Community Park,5592 LYNNHAVEN PKWY,,3448480.07914238,12161594.0017461,36.77091665,-76.18272078,City Park,
-76.179888117242626,36.780698805205084,474,14652230470000,Charlestown East Park,1760 LEGARE LN,,3452060.91515654,12162335.932677,36.78069881,-76.17988812,City Park,
-76.177521710442477,36.763937733423695,475,14643611790000,Charlestown Lakes South Park,1052 KINDERLY LN,,3445977.35120821,12163178.8834189,36.76393773,-76.17752171,City Park,
-76.179796480100478,36.764841373981184,476,14642653720000,Charlestown Lakes South Park West,1053 KINDERLY LN,,3446289.86994013,12162504.644938,36.76484137,-76.17979648,City Park,
-76.172467704212394,36.809705975512728,477,14664209950000,Chatham Hall Park,5364 CHATHAM HALL DR,,3462672.26073171,12164248.1191413,36.80970598,-76.1724677,City Park,
-76.055611759154601,36.894760892868618,478,14997464970000,Chelsea/Greenhill Park,2532 QUEENS ELM PL STE P1,,3494493.62228571,12197645.7649443,36.89476089,-76.05561176,City Park,
-76.044174884165969,36.868913719986878,479,24081531460000,Colonial Oaks Park,1254 PARKSIDE PL,,3485173.03134689,12201233.8847366,36.86891372,-76.04417488,City Park,
-76.142187484854759,36.787509084909857,480,14753438400000,Coventry Park,4757 ARDMORE LN,,3454813.19442888,12173311.9386121,36.78750908,-76.14218748,City Park,
-76.159926894062693,36.851196346540931,481,14677758620000,Northridge Park,5210 CONDOR ST,,3477864.38159414,12167543.9895181,36.85119635,-76.15992689,City Park,
-76.010977600620521,36.608710090689272,482,23185942740000,Creeds Ath. Airfield Park,1585 CAMPBELLS LANDING RD,,3390723.96565221,12213439.196612,36.60871009,-76.0109776,City Park,
-75.968165442874934,36.825294336526539,483,,Croatan Beach Park,500 ATLANTIC AV,,3469884.89558463,12223886.8850341,36.82529434,-75.96816544,City Park,
-76.169196286984331,36.872821992215158,484,14684566670000,Cypress Point North Park,1100 FALLBROOK BND,,3485668.46080221,12164638.2522193,36.87282199,-76.16919629,City Park,
-76.054960040399138,36.850168086917144,485,14978832580000,Deerwood Trace Park,2540 REAGAN AVE,,3478268.4365603,12198256.7345229,36.85016809,-76.05496004,City Park,
-76.168848642562651,36.900889779776861,486,14692634760000,Diamond Springs Park,5610 HADEN RD,,3495886.91575897,12164487.5930718,36.90088978,-76.16884864,City Park,
-76.073283136251106,36.836473850573455,487,14973301630000,Doyle Way Park,,,3473145.89923322,12193025.3276629,36.83647385,-76.07328314,City Park,
-76.137533496624059,36.805547645112817,488,14764144840000,Dunbarton Park,4468 PADDOCK LN,,3461412.77014047,12174510.0582631,36.80554765,-76.1375335,City Park,
-76.061936253589337,36.839465651193841,489,14976432290000,Eureka Park,2600 SOUTHERN BLVD,,3474320.35620189,12196316.7974579,36.83946565,-76.06193625,City Park,
-76.172493527183548,36.817910993251026,490,14664516780000,Fairfield Park,717 ROSAER CIR,,3465658.4873708,12164166.9168759,36.81791099,-76.17249353,City Park,
-76.180602431505406,36.82210829476783,491,14661781330000,Fairfield Forest Park,5380 HARGROVE BLVD,,3467127.78430097,12161756.4174318,36.82210829,-76.18060243,City Park,
-76.040299302298635,36.741183042009659,492,24033866590000,Fox Fire Park,2471 ESPLANADE DR,,3438713.54093272,12203578.7704667,36.74118304,-76.0402993,City Park,
-76.163446694568492,36.852842195053732,493,14676854160000,Grand Lakes Park,421 INDIAN SUMMER LN,,3478437.91948904,12166499.5949533,36.85284219,-76.16344669,City Park,
-76.034535965658947,36.856753157440465,494,24084017880000,Gloucester Park,1910 LONG BRIDGE LN,,3480820.5515348,12204168.1961251,36.85675316,-76.03453597,City Park,
-76.039904836786022,36.871062838298869,495,24082559020000,Great Neck Farms Park,1210 MOOREFIELD CT,,3485987.7459248,12202462.1814926,36.87106284,-76.03990484,City Park,
-76.033935956626181,36.862394776191394,496,24084228540000,Great Neck Meadows Park,781 OLD CUTLER RD,,3482878.46310139,12204290.0334799,36.86239478,-76.03393596,City Park,
-76.058726850658616,36.888393726601379,497,14996081840000,Broad Bay Estates Park,2548 Falcon Crescent,,3492152.63812254,12196795.0707796,36.88839373,-76.05872685,City Park,
-76.114149411038952,36.797156993585297,498,14851855990000,Green Run Park,1877 LYNNHAVEN PKWY,,3458530.99604838,12181431.3055754,36.79715699,-76.11414941,City Park,
-76.081959328471527,36.846211579736412,499,14970646320000,Groveland Park,409 N LYNNHAVEN RD,,3476624.94837746,12190396.2486035,36.84621158,-76.08195933,City Park,
-76.148171575288984,36.877546782033512,500,14780786710000,Haygood Point Park,4775 HAYGOOD POINT RD,,3487540.66309455,12170743.5096938,36.87754678,-76.14817158,City Park,
-76.140255575191247,36.894749563411693,501,14792398050000,Hermitage Park,4730 ANDREW JACKSON LN,,3493859.75380279,12172901.6339865,36.89474956,-76.14025558,City Park,
-76.068369792719778,36.775657707946216,502,14955100570000,Holland Oaks Park,2962 SUGAR MAPLE DR,,3451048.01560755,12195033.0296842,36.77565771,-76.06836979,City Park,
-76.083985159692929,36.783246376420294,503,,Brigand'S Quay Park,1777 BRIGANDS WY,,3453692.61530522,12190390.2870012,36.78324638,-76.08398516,City Park,
-76.053650043389965,36.76548356012983,504,14949744850000,Holland Woods Park,,,3447456.37941813,12199438.8040091,36.76548356,-76.05365004,City Park,
-76.094385271944148,36.814234290949969,505,14867418360000,Holly Green Park,3418 WALTHAM CIR STE B,,3464893.4042553,12187058.0544925,36.81423429,-76.09438527,City Park,
-76.020030664848719,36.76617166533876,506,24049729650000,Hunt Club Forest Park,2440 HUNTS NECK TRL,,3447963.7452013,12209276.8909602,36.76617167,-76.02003066,City Park,
-76.027646683337096,36.76859059083101,507,24047808120000,Hunt Club Park,2122 GREY FOX LN,,3448785.62774389,12207023.6799155,36.76859059,-76.02764668,City Park,
-76.027834577656876,36.7641284196974,508,24047701380000,Hunters Run Park,2540 HUNTERS RUN TRL,,3447160.13525997,12207011.2009378,36.76412842,-76.02783458,City Park,
-76.162968948940843,36.815203354412539,509,14667418240000,Kempsville Park,832 KEMPSVILLE RD,,3464741.85304922,12166978.5474075,36.81520335,-76.16296895,City Park,
-76.054564196870857,36.851432186493284,510,14978837750000,Kenstock Park,2521 PERITAN RD,,3478731.52126405,12198360.5988165,36.85143219,-76.0545642,City Park,
-76.103938099507616,36.860416292137081,511,14883185740000,Kings Grant West Park,3797 KINGS GRANT RD,,3481631.03679046,12183835.7594279,36.86041629,-76.1039381,City Park,
-75.983971836593255,36.742772783683705,512,24230907950000,Lagomar Park,2701 ATWOODTOWN RD,,3439727.05366947,12220062.722735,36.74277278,-75.98397184,City Park,
-76.173511368706116,36.866411962348032,513,14683343310000,Lake Edward North Park,,,3483304.24308972,12163433.9275282,36.86641196,-76.17351137,City Park,
-76.171249684806867,36.864637779388516,514,14684217660000,Lake Edward Park,704 HAMPSHIRE LN STE P,,3482674.79782631,12164111.2867378,36.86463778,-76.17124968,City Park,
-76.049559235960345,36.782021297126811,515,24050354590000,Lake Placid Park,2420 MIRROR LAKE DR,,3453506.56318389,12200480.4347999,36.7820213,-76.04955924,City Park,
-76.143210825863491,36.887002852229259,516,14792019390000,Lakeview Shores Park,4712 MCKENZIE DR,,3491018.58527255,12172108.1103111,36.88700285,-76.14321083,City Park,
-76.069570570760064,36.810008615402019,517,14964335710000,Lamplight Manor Park,2933 AUGUSTA CIR,,3463541.45387521,12194359.5038003,36.81000862,-76.06957057,City Park,
-76.080776143936077,36.779616922066346,518,14951225350000,Landstown Lakes Park,3180 MONET DR,,3452395.6851563,12191363.6256057,36.77961692,-76.08077614,City Park,
-76.070594292654491,36.773032706425354,519,14954040740000,Landstown Meadows Park,1916 WINTER FOREST CT,,3450075.83677763,12194406.3091529,36.77303271,-76.07059429,City Park,
-76.083482071692799,36.774150924896844,520,14950064300000,Landstown Meadows West Park,3268 BARBERRY LN,,3450385.95623612,12190622.3301723,36.77415093,-76.08348207,City Park,
-76.128421096874732,36.814220989078365,521,14767426060000,Larkspur Greens Park,641 PINEBROOK DR,,3464636.49039905,12177097.7564997,36.81422099,-76.1284211,City Park,
-76.044770054872629,36.874199070285762,522,24081711230000,Laurel Cove Park,1321 PARKSIDE PL,,3487092.16825663,12201009.7979144,36.87419907,-76.04477005,City Park,
-76.175416878680053,36.878344789272603,523,14682786150000,Lawson Hall Park,5564 LAWSON HALL RD,,3487633.75706847,12162769.6939486,36.87834479,-76.17541688,City Park,
-76.21960967605041,36.828573598753231,524,14560932010000,Lecove Park,3458 GLEN ARDEN RD,,3469202.87956022,12150285.1985764,36.8285736,-76.21960968,City Park,
-76.085677021546203,36.808853838334066,525,14869360320000,The Lakes East,929 POCASSET CT,,3463000.1757583,12189656.5607784,36.80885384,-76.08567702,City Park,
-76.150816753576308,36.81606098288789,526,14760540110000,Lark Downs Park,800 MONMOUTH LN,,3465142.29122472,12170527.0567146,36.81606098,-76.15081675,City Park,
-76.204234081104701,36.806536379199471,527,14565113520000,Level Green Park,1520 LEVEL GREEN BLVD,,3461290.89997739,12154979.1603171,36.80653638,-76.20423408,City Park,
-76.106971451507292,36.819154409542101,528,14863625770000,Liberty Ridge Park,3733 CHANCERY LN,,3466590.53570355,12183329.3769105,36.81915441,-76.10697145,City Park,
-76.098493947763117,36.824854686978142,529,14865877730000,Lineberry Park,3629 KINGS POINT RD,,3468728.25649372,12185757.3212016,36.82485469,-76.09849395,City Park,
-76.098736132665394,36.877005658278442,530,14885726080000,Little Neck Park,,,3487707.68441404,12185203.5431096,36.87700566,-76.09873613,City Park,
-76.098352205289387,36.90574760820774,531,14895801460000,Lock Haven Park,3657 E STRATFORD RD,,3498171.66775113,12185049.6132994,36.90574761,-76.09835221,City Park,
-76.049002563453499,36.848698307584712,532,24070707160000,London Bridge Park,520 OLD GREAT NECK RD,,3477778.69016446,12200013.199842,36.84869831,-76.04900256,City Park,
-75.984561110758378,36.73103577156354,533,24139594820000,Lotus Garden Park,1289 SANDBRIDGE RD,,3435450.70067363,12220003.9685874,36.73103577,-75.98456111,City Park,
-76.159424168981928,36.859923669499445,534,14687160140000,Lynbrook Landing Park,5390 LYNBROOK LNDG,,3481044.53665113,12167612.2675967,36.85992367,-76.15942417,City Park,
-76.080115627979026,36.909168717116785,535,14990936340000,Lynnhaven Colony Park,3125 SHORE DR,,3499552.98421422,12190348.0685817,36.90916872,-76.08011563,City Park,
-76.078897861000087,36.836954918191545,536,14971352550000,Lynnhaven Woods Park,156 GOLDEN MAPLE DR,,3473278.80546346,12191378.2112065,36.83695492,-76.07889786,City Park,
-76.004627593133407,36.771798024508932,537,24153071560000,Malbon Acres Park,1952 ROSSINI DR,,3450130.38325647,12213733.1162997,36.77179802,-76.00462759,City Park,
-76.185539865157708,36.861414078385351,538,,Margate Avenue Park,5984 MARGATE AV,,3481398.65175655,12159960.8098026,36.86141408,-76.18553987,City Park,
-76.022720078875551,36.770329099397124,539,24048944730000,Middle Oaks Plantation Park,2368 BREEZY PINES LN,,3449456.20054972,12208449.6521291,36.7703291,-76.02272008,City Park,
-76.083388933465812,36.865223997684296,540,14889375760000,Middle Plantation/Bishop'S Gate Park,3181 LITTLE HAVEN RD STE P1,,3483534.10122579,12189800.8823401,36.865224,-76.08338893,City Park,
-76.116950440739842,36.766159769906579,541,14840792020000,Newcastle Park,3805 MIDDLEHAM DR,,3447228.26373263,12180896.2676035,36.76615977,-76.11695044,City Park,
-76.181182993808918,36.805001865108721,542,14661079380000,Newlight Park,1111 THOMPKINS LN,,3460897.30069897,12161739.4998147,36.80500187,-76.18118299,City Park,
-76.166712780295342,36.859632621360085,543,14685048760000,Newsome Farms Park,588 PROSPECT LN,,3480885.82174547,12165483.1642434,36.85963262,-76.16671278,City Park,
-76.09685407770354,36.806992994484304,544,14866232840000,Oak Springs Park,832 NORTHWOOD DR,,3462239.40857905,12186402.679819,36.80699299,-76.09685408,City Park,
-75.983417120617091,36.760580012241789,545,24240602630000,Lagomar North Park,960 ARTESIA WAY,,3446212.4239008,12220052.3940155,36.76058001,-75.98341712,City Park,
-76.001616691829312,36.76676155268288,546,24144863530000,Ocean Lakes East Park,1276 TENNYSON RD,,3448320.64573422,12214663.2315655,36.76676155,-76.00161669,City Park,
-75.997859113556018,36.771750926216789,547,24155061860000,Ocean Lakes North Park,1916 UPTON DR,,3450165.71028554,12215715.381036,36.77175093,-75.99785911,City Park,
-76.026875841686731,36.83896601397187,548,24076454910000,Oceana Village Park,1813 S STREAMLINE DR,,3474405.3616093,12206578.2250977,36.83896601,-76.02687584,City Park,
-76.169820590953975,36.834142208745163,549,14674175970000,Parliament Village Park,5324 LEESBURG DR,,3471585.52374504,12164803.2620599,36.83414221,-76.16982059,City Park,
-76.101577726691261,36.814921713223249,550,14864590870000,Pecan Gardens Park,,,3465090.03607988,12184946.8671138,36.81492171,-76.10157773,City Park,
-76.12308560265204,36.862716429842187,551,14788222890000,Pembroke Meadows Wayside Park,4333 PEMBROKE BLVD,,3482326.61971688,12178214.6581373,36.86271643,-76.1230856,City Park,
-75.983567322525872,36.781883785322854,552,24159389260000,Pine Meadows West Park,1577 BUNSEN DR,,3453964.87394705,12219801.6779815,36.78188379,-75.98356732,City Park,
-75.983630899891793,36.783683246053435,553,24159476750000,Pine Meadows Place Park,1497 GALVANI DR,,3454619.30111589,12219765.6039066,36.78368325,-75.9836309,City Park,
-76.033363598636157,36.773145058819516,554,24055024610000,Pine Ridge Park,1901 PINEY WOODS LN STE P2,,3450399.47392564,12205306.3611716,36.77314506,-76.0333636,City Park,
-76.071759978906513,36.837683984608752,555,14973346410000,Pinewood Gardens Park,2800 ANSOL LN,,3473597.80548163,12193459.6053377,36.83768398,-76.07175998,City Park,
-76.087358630028845,36.834707477527871,556,14878294710000,Plaza Park,208 S PLAZA TRL,,3472397.43025771,12188923.8778606,36.83470748,-76.08735863,City Park,
-76.044054484765084,36.849081591829083,557,24071749200000,Point O'Woods Park,2128 CHICKEN VALLEY RD,,3477955.81481022,12201456.9180831,36.84908159,-76.04405448,City Park,
-76.060735013815005,36.760762342771741,558,14947546080000,Princess Anne Crossing Park,2561 CANTWELL RD,,3445684.33276539,12197408.5301826,36.76076234,-76.06073501,City Park,
-76.22044676485973,36.813462911625827,559,14560327200000,Queen City Park,1017 TAMER AVE,,3463696.99752738,12150173.1010316,36.81346291,-76.22044676,City Park,
-76.176409391304873,36.881173843321776,560,14682846570000,Raleigh Square Park,5508 SHIRE REACH,,3488656.31473464,12162454.1306033,36.88117384,-76.17640939,City Park,
-76.188365160151065,36.826850704434129,561,14569847560000,Woods Of Avalon,5720 NORMANDY AVE,,3468798.17826988,12159442.6087392,36.8268507,-76.18836516,City Park,
-76.003666137064585,36.764057636724687,562,24144702890000,Red Mill Farms North Park,2049 UPTON DR STE 1,,3447320.6559363,12214089.1434748,36.76405764,-76.00366614,City Park,
-76.001872424224402,36.789420918341619,563,24154645350000,Red Wing On The Park,1213 EAGLEWOOD DR STE B,,3456565.70339105,12214370.0622043,36.78942092,-76.00187242,City Park,
-76.142682440406645,36.864284083181381,564,14782247850000,Romney Lane Park,861 ROMNEY LN,,3482753.46138288,12172469.1177911,36.86428408,-76.14268244,City Park,
-76.149838559198798,36.79080983910908,565,14750690330000,Rosemont Forest Park,4360 PLEASANT VALLEY RD,,3455958.71280713,12171042.1652645,36.79080984,-76.14983856,City Park,
-76.15572300850171,36.779550097697808,566,14659147780000,Rosemont Forest West Park,1841 GRAVENHURST DR,,3451817.63808405,12169421.3496085,36.7795501,-76.15572301,City Park,
-76.143880262091329,36.786947510737306,567,14752485690000,Rosemont Forest East Park,2300 LYNNHAVEN PKWY,,3454596.42222463,12172821.4792911,36.78694751,-76.14388026,City Park,
-76.116458874531531,36.773835923124885,568,14850090450000,Salem Lakes Park,2080 CENTENNIAL CIR,,3450025.77782263,12180969.6572205,36.77383592,-76.11645887,City Park,
-76.121259171372557,36.77011657748195,569,14749876710000,Salem Lakes South Park,,,3448636.59162463,12179598.2410001,36.77011658,-76.12125917,City Park,
-76.112227986511442,36.776896344096286,570,14852112730000,Salem Park,1848 CENTENNIAL CIR,,3451170.98649022,12182180.2860328,36.77689634,-76.11222799,City Park,
-76.112802418711439,36.782787042419862,571,14851392890000,Salem Village Park,1712 MOONSTONE DR,,3453310.75944163,12181957.8704671,36.78278704,-76.11280242,City Park,
-76.040911382892205,36.742278257014149,572,24033951160000,Fox Fire East Park,2470 ESPLANADE DR,,3439107.48502672,12203389.0933526,36.74227826,-76.04091138,City Park,
-75.99235897520974,36.836080334735968,573,24176376010000,Salt Marsh Point Park,141 MARSHVIEW DR STE P2,,3473621.53968613,12216703.7511065,36.83608033,-75.99235898,City Park,
-75.9439758936701,36.746353483619302,574,24341173520000,Sandbridge Beach Park,,,3441345.04288755,12231742.5907794,36.74635348,-75.94397589,City Park,
-76.119744523768645,36.868165067966608,575,14789413520000,Saw Pen Point Park,1051 SAW PEN POINT TRL STE P2,,3484334.38046514,12179141.7740652,36.86816507,-76.11974452,City Park,
-76.079558581773043,36.800976380795589,576,14961051480000,Scarborough Square Park,1225 WARWICK DR,,3460178.91991788,12191520.732575,36.80097638,-76.07955858,City Park,
-76.077449446182072,36.79987226738691,577,14952929150000,Scarborough Square East Park,1198 OLD CLUBHOUSE RD,,3459792.90002063,12192148.3779732,36.79987227,-76.07744945,City Park,
-76.076450344414638,36.801777068347768,578,14962045310000,Scarborough Square North Park,1201 OLD CLUBHOUSE RD,,3460493.68766105,12192423.0109541,36.80177707,-76.07645034,City Park,
-75.990905368129361,36.839891361476496,579,24177510240000,Seabridge Square Park,1001 COASTAWAY DR,,3475019.8879393,12217092.1315633,36.83989136,-75.99090537,City Park,
-75.99650190648542,36.83049590927974,580,24175155880000,Seatack Park,340 S BIRDNECK RD,,3471556.87485221,12215545.6425303,36.83049591,-75.99650191,City Park,
-76.001647454636213,36.846076994718942,581,24173792600000,Seatack North Park,1152 AMERICUS AVE,,3477187.83143805,12213890.0798966,36.84607699,-76.00164745,City Park,
-76.023927837723903,36.85710085225282,582,24087120710000,Southall Quarter Park,1625 SOUTHALL DR,,3481028.31982005,12207267.4852021,36.85710085,-76.02392784,City Park,
-76.025148547583697,36.760217573701013,583,24047598110000,Southgate Park,2281 HUCKLEBERRY TRL,,3445757.35853797,12207835.0788832,36.76021757,-76.02514855,City Park,
-76.032367325663571,36.755645063736537,584,24045470550000,Southgate West Park,2400 LILLIPOND LN,,3444037.7943918,12205764.593851,36.75564506,-76.03236733,City Park,
-76.186518355979246,36.813245549832573,585,14660318100000,Stoneybrook Park,5600 NEW COLONY DR,,3463859.47784546,12160104.366274,36.81324555,-76.18651836,City Park,
-76.164612061020279,36.811712384932612,586,14666354470000,Stratford Chase Park,900 MINDEN RD,,3463459.33166413,12166529.1375451,36.81171239,-76.16461206,City Park,
-76.017830854211269,36.771694097083788,587,24059070070000,Strawbridge North Park,2125 WEYBRIDGE DR,,3449990.61647563,12209868.1863656,36.7716941,-76.01783085,City Park,
-76.019791448878436,36.770173003375042,588,24049934150000,Strawbridge Park,2301 HUNTS NECK TRL,,3449421.90927972,12209308.6691119,36.770173,-76.01979145,City Park,
-76.120180070137508,36.784040306518456,589,14759386070000,Sunstream Park,4052 RAINBOW DR,,3453712.36296913,12179786.4374741,36.78404031,-76.12018007,City Park,
-76.013512630182632,36.840648262653303,590,24170551140000,Oceana Gardens Park,213 N OCEANA BLVD,,3475120.34410322,12210471.4023507,36.84064826,-76.01351263,City Park,
-76.119637469739615,36.84681323619261,591,14779625680000,Thalia Park,420 THALIA RD,,3476563.76444471,12179369.0764321,36.84681324,-76.11963747,City Park,
-76.111081145117467,36.836208832581711,592,14871297840000,Thalia Trace Park,169 THALIA TRACE DR,,3472767.33634205,12181969.6627664,36.83620883,-76.11108114,City Park,
-75.995771766602246,36.781753981067752,593,24156328420000,Upton Estates North Park,1136 CROSSWAY RD,,3453822.5976568,12216229.9574346,36.78175398,-75.99577177,City Park,
-75.996909223296484,36.77841074965454,594,24155296270000,Upton Estates Park,1916 EASTBORNE DR,,3452596.97248338,12215929.2247684,36.77841075,-75.99690922,City Park,
-75.985662251260607,36.852373975599832,595,24178945950000,Old Beach Park,2520 CYPRESS AVE,,3479603.82332522,12218504.9040002,36.85237398,-75.98566225,City Park,
-76.049515747619125,36.765815130442533,596,24040746770000,Rolling Woods Park,1704 PRODAN LN,,3447608.46408771,12200646.3097962,36.76581513,-76.04951575,City Park,
-76.176736561324589,36.879943457518863,597,14682831790000,Wesleyan Park,5525 SHIRE REACH,,3488206.13059562,12162369.4919931,36.87994346,-76.17673656,City Park,
-76.181172457468932,36.807638665324667,598,14661168810000,Whitehurst Grove Park,1098 TAYLOR RD,,3461857.1052098,12161719.0051051,36.80763867,-76.18117246,City Park,
-76.112079949542519,36.82246923830445,599,14861787590000,Windsor Oaks West Park,532 WINDSOR OAKS BLVD,,3467759.16656838,12181803.9728091,36.82246924,-76.11207995,City Park,
-76.151660851041441,36.859053646899532,600,14689097160000,Witchduck Landing Park,5071 HOLLY FARMS DR,,3480784.2720798,12169890.7030005,36.85905365,-76.15166085,City Park,
-76.052968584110374,36.857172407468276,601,14988078740000,Wolfsnare Park,2401 PLANTATION DR,,3480832.84252071,12198773.1442512,36.85717241,-76.05296858,City Park,
-76.07000936274207,36.770369093356855,602,14944961800000,Wood Of Piney Grove Park,3017 DAMASCUS TRL,,3449110.78621429,12194602.5367788,36.77036909,-76.07000936,City Park,
-76.200475509294705,36.820719803528682,603,14566614590000,Woodstock Cove Park,,,3466480.11433646,12155953.4520036,36.8207198,-76.20047551,City Park,
-76.127088918664583,36.771948813972699,604,14747972770000,Wyndamere Park,4077 WARE NECK DR,,3449260.5004818,12177874.4301432,36.77194881,-76.12708892,City Park,
-76.13565910788482,36.761527071947398,605,14745543360000,Hillcrest Farms Park,2464 SAVANNAH TRL,,3445404.31692122,12175460.0160088,36.76152707,-76.13565911,City Park,
-76.095784601916748,36.790747610650882,606,14856693030000,Buckner Farms Park,1508 COMPETITOR CT,,3456334.60313146,12186866.3012671,36.79074761,-76.0957846,City Park,
-75.993992533706134,36.762841956786161,607,24146699360000,Sawyer Lakes Estates Park,916 GIDEON RD,,3446953.27018814,12216933.6085864,36.76284196,-75.99399253,City Park,
-76.047743905162832,36.761427528512669,608,24041519300000,Litchfield Manor Park,2313 LITCHFIELD WAY,,3446025.01974805,12201206.6443055,36.76142753,-76.0477439,City Park,
-76.091270257695271,36.811821644879927,609,14867490830000,The Lakes Park,3296 BOYNTON CT,,3464038.53227738,12187992.0542649,36.81182164,-76.09127026,City Park,
-75.978698780672687,36.75322004966899,610,24241345360000,Lagomar At Back Bay Park,817 ARTESIA WAY,,3443570.60602172,12221505.6788386,36.75322005,-75.97869878,City Park,
-76.204235478883291,36.827866093867208,611,14564970950000,Hunts Pointe Park,574 CARDAMON DR,,3469054.41529022,12154789.9156168,36.82786609,-76.20423548,City Park,
-76.113167937810672,36.755127040215761,612,14842312070000,Highlands Meadows Park,2640 HIGHLAND MEADOWS WAY,,3443240.68706213,12182105.4492402,36.75512704,-76.11316794,City Park,
-76.131733873436787,36.918165954949401,613,15705224560000,Chesapeake Beach Park,,,3502445.02829888,12175178.9847467,36.91816596,-76.13173387,City Park,
-76.127178875957128,36.866160784396747,614,14786362900000,Pembroke Meadows Park,820 CATHEDRAL DR,,3483550.13892338,12176986.025424,36.86616078,-76.12717888,City Park,
-75.993341442873032,36.590655941471539,658,23188483560000,Princess Anne Wildlife Management Area HQ,1300 BACK BAY LANDING RD,,3384289.95752288,12218788.6698369,36.59065594,-75.99334144,Wildlife Refuge,
-75.977749611760345,36.859527493497467,663,24280273230000,31st Street Park,3101 ATLANTIC AVE,,3482269.13262713,12220749.6757574,36.85952749,-75.97774961,City Park,
